NORAD_CAT_ID,OBJECT_NAME,OBJECT_TYPE,EPOCH,MEAN_MOTION,ECCENTRICITY,INCLINATION,RA_OF_ASC_NODE,ARG_OF_PERICENTER,MEAN_ANOMALY,BSTAR,MEAN_MOTION_DOT,MEAN_MOTION_DDOT,TLE_LINE0,TLE_LINE1,TLE_LINE2,SEMIMAJOR_AXIS,PERIOD,APOGEE,PERIGEE,DECAYED
52999.0,STARLINK-4217,PAYLOAD,2023-04-28 06:43:34,15.08836199,0.0001404,53.2164,111.6316,93.3858,266.7295,3.5427e-05,2.76e-06,0.0,0 STARLINK-4217,1 52999U 22076P   23118.28025734  .00000276  00000-0  35427-4 0  9997,2 52999  53.2164 111.6316 0001404  93.3858 266.7295 15.08836199 45344,6917.892,95.438,540.728,538.786,0.0
52999.0,STARLINK-4217,PAYLOAD,2023-04-29 11:20:30,15.08843351,0.0001404,53.2166,106.279,92.0915,268.0238,3.6184e-05,2.88e-06,0.0,0 STARLINK-4217,1 52999U 22076P   23119.47257406  .00000288  00000-0  36184-4 0  9996,2 52999  53.2166 106.2790 0001404  92.0915 268.0238 15.08843351 45050,6917.87,95.437,540.706,538.764,0.0
52999.0,STARLINK-4217,PAYLOAD,2023-04-30 08:00:31,15.08834232,0.0001551,53.2175,102.4129,94.0968,266.0201,6.7208e-05,7.82e-06,0.0,0 STARLINK-4217,1 52999U 22076P   23120.33370019  .00000782  00000-0  67208-4 0  9999,2 52999  53.2175 102.4129 0001551  94.0968 266.0201 15.08834232 45659,6917.898,95.438,540.836,538.69,0.0
52999.0,STARLINK-4217,PAYLOAD,2023-05-01 06:15:56,15.08793285,0.0001636,53.2183,98.2493,90.3691,269.7489,0.00048805,7.478e-05,0.0,0 STARLINK-4217,1 52999U 22076P   23121.26107124  .00007478  00000-0  48805-3 0  9997,2 52999  53.2183  98.2493 0001636  90.3691 269.7489 15.08793285 45795,6918.023,95.441,541.02,538.756,0.0
52999.0,STARLINK-4217,PAYLOAD,2023-05-02 04:31:18,15.08847842,0.0001463,53.2177,94.0833,91.6905,268.4254,0.00010146,1.327e-05,0.0,0 STARLINK-4217,1 52999U 22076P   23122.18841113  .00001327  00000-0  10146-3 0  9996,2 52999  53.2177  94.0833 0001463  91.6905 268.4254 15.08847842 45931,6917.856,95.437,540.734,538.709,0.0
52999.0,STARLINK-4217,PAYLOAD,2023-05-02 07:42:04,15.08849252,0.0001485,53.2179,93.4888,91.4227,268.6935,0.00011039,1.47e-05,0.0,0 STARLINK-4217,1 52999U 22076P   23122.32088937  .00001470  00000-0  11039-3 0  9990,2 52999  53.2179  93.4888 0001485  91.4227 268.6935 15.08849252 45480,6917.852,95.437,540.744,538.69,0.0
52999.0,STARLINK-4217,PAYLOAD,2023-05-02 15:39:00,15.08844995,0.0001564,53.218,92.0028,96.4858,263.6312,6.3181e-05,7.18e-06,0.0,0 STARLINK-4217,1 52999U 22076P   23122.65209230  .00000718  00000-0  63181-4 0  9997,2 52999  53.2180  92.0028 0001564  96.4858 263.6312 15.08844995 45535,6917.865,95.437,540.812,538.648,0.0
52999.0,STARLINK-4217,PAYLOAD,2023-05-03 04:22:06,15.08841843,0.0001406,53.2172,89.6273,87.941,272.1743,1.0505e-05,-1.21e-06,0.0,0 STARLINK-4217,1 52999U 22076P   23123.18201690 -.00000121  00000-0  10505-4 0  9999,2 52999  53.2172  89.6273 0001406  87.9410 272.1743 15.08841843 46087,6917.875,95.437,540.712,538.767,0.0
52999.0,STARLINK-4217,PAYLOAD,2023-05-03 07:32:52,15.08844352,0.0001289,53.2173,89.0324,103.7152,256.3984,1.5242e-05,-4.5e-07,0.0,0 STARLINK-4217,1 52999U 22076P   23123.31449369 -.00000045  00000-0  15242-4 0  9999,2 52999  53.2173  89.0324 0001289 103.7152 256.3984 15.08844352 45637,6917.867,95.437,540.624,538.84,0.0
52999.0,STARLINK-4217,PAYLOAD,2023-05-04 07:23:39,15.08840084,0.0001541,53.2176,84.5713,78.7957,281.3209,-6.7188e-05,-1.357e-05,0.0,0 STARLINK-4217,1 52999U 22076P   23124.30810136 -.00001357  00000-0 -67188-4 0  9997,2 52999  53.2176  84.5713 0001541  78.7957 281.3209 15.08840084 46252,6917.88,95.438,540.811,538.679,0.0
52999.0,STARLINK-4217,PAYLOAD,2023-05-05 07:14:26,15.0884146,0.0001332,53.2175,80.1113,90.1492,269.9653,5.4161e-05,5.74e-06,0.0,0 STARLINK-4217,1 52999U 22076P   23125.30169709  .00000574  00000-0  54161-4 0  9996,2 52999  53.2175  80.1113 0001332  90.1492 269.9653 15.08841460 45935,6917.876,95.437,540.662,538.819,0.0
52999.0,STARLINK-4217,PAYLOAD,2023-05-06 00:43:42,15.08828354,0.0001289,53.2175,76.84,93.085,267.029,-5.4051e-05,-1.148e-05,0.0,0 STARLINK-4217,1 52999U 22076P   23126.03035370 -.00001148  00000-0 -54051-4 0  9991,2 52999  53.2175  76.8400 0001289  93.0850 267.0290 15.08828354 46515,6917.916,95.438,540.673,538.889,0.0
52999.0,STARLINK-4217,PAYLOAD,2023-05-06 03:54:28,15.08835826,0.0001256,53.2174,76.246,95.004,265.1095,2.55e-05,1.18e-06,0.0,0 STARLINK-4217,1 52999U 22076P   23126.16282708  .00000118  00000-0  25500-4 0  9995,2 52999  53.2174  76.2460 0001256  95.0040 265.1095 15.08835826 46537,6917.893,95.438,540.627,538.889,0.0
52999.0,STARLINK-4217,PAYLOAD,2023-05-06 07:05:14,15.08838414,0.0001258,53.2173,75.651,93.9035,266.2101,4.3889e-05,4.11e-06,0.0,0 STARLINK-4217,1 52999U 22076P   23126.29530526  .00000411  00000-0  43889-4 0  9999,2 52999  53.2173  75.6510 0001258  93.9035 266.2101 15.08838414 46084,6917.885,95.438,540.621,538.88,0.0
52999.0,STARLINK-4217,PAYLOAD,2023-05-07 02:09:51,15.08848214,0.0001229,53.2173,72.0826,96.9039,263.2093,4.8343e-05,4.82e-06,0.0,0 STARLINK-4217,1 52999U 22076P   23127.09017975  .00000482  00000-0  48343-4 0  9994,2 52999  53.2173  72.0826 0001229  96.9039 263.2093 15.08848214 46671,6917.855,95.437,540.57,538.87,0.0
52999.0,STARLINK-4217,PAYLOAD,2023-05-07 05:20:37,15.0885494,0.0001257,53.2173,71.4881,95.5162,264.5973,0.00010385,1.366e-05,0.0,0 STARLINK-4217,1 52999U 22076P   23127.22265344  .00001366  00000-0  10385-3 0  9990,2 52999  53.2173  71.4881 0001257  95.5162 264.5973 15.08854940 46694,6917.835,95.437,540.569,538.83,0.0
52999.0,STARLINK-4217,PAYLOAD,2023-05-08 03:36:03,15.08832544,0.0001326,53.2174,67.3249,103.5169,256.5971,-1.766e-05,-5.69e-06,0.0,0 STARLINK-4217,1 52999U 22076P   23128.15003611 -.00000569  00000-0 -17660-4 0  9990,2 52999  53.2174  67.3249 0001326 103.5169 256.5971 15.08832544 46832,6917.903,95.438,540.685,538.851,0.0
52999.0,STARLINK-4217,PAYLOAD,2023-05-08 13:08:21,15.08837761,0.0001283,53.2177,65.5407,91.8676,268.2463,1.5604e-05,-4e-07,0.0,0 STARLINK-4217,1 52999U 22076P   23128.54747343 -.00000040  00000-0  15604-4 0  9999,2 52999  53.2177  65.5407 0001283  91.8676 268.2463 15.08837761 46422,6917.887,95.438,540.64,538.865,0.0
52999.0,STARLINK-4217,PAYLOAD,2023-05-09 01:51:25,15.0885382,0.0001265,53.218,63.1613,91.4818,268.6319,5.2193e-05,5.43e-06,0.0,0 STARLINK-4217,1 52999U 22076P   23129.07738167  .00000543  00000-0  52193-4 0  9993,2 52999  53.2180  63.1613 0001265  91.4818 268.6319 15.08853820 46500,6917.838,95.437,540.578,538.828,0.0
52999.0,STARLINK-4217,PAYLOAD,2023-05-10 01:42:13,15.08842136,0.0001308,53.2175,58.7027,94.7962,265.318,9.3799e-05,1.205e-05,0.0,0 STARLINK-4217,1 52999U 22076P   23130.07098671  .00001205  00000-0  93799-4 0  9997,2 52999  53.2175  58.7027 0001308  94.7962 265.3180 15.08842136 46651,6917.874,95.437,540.644,538.834,0.0
52999.0,STARLINK-4217,PAYLOAD,2023-05-11 01:33:00,15.08832032,0.0001492,53.219,54.2434,111.0752,249.04,0.00021978,3.211e-05,0.0,0 STARLINK-4217,1 52999U 22076P   23131.06458563  .00003211  00000-0  21978-3 0  9995,2 52999  53.2190  54.2434 0001492 111.0752 249.0400 15.08832032 46800,6917.905,95.438,540.802,538.738,0.0
52999.0,STARLINK-4217,PAYLOAD,2023-05-12 01:23:48,15.08831542,0.0001444,53.2188,49.7821,94.9982,265.1175,-4.0614e-05,-9.34e-06,0.0,0 STARLINK-4217,1 52999U 22076P   23132.05819815 -.00000934  00000-0 -40614-4 0  9996,2 52999  53.2188  49.7821 0001444  94.9982 265.1175 15.08831542 47429,6917.906,95.438,540.77,538.772,0.0
52999.0,STARLINK-4217,PAYLOAD,2023-05-12 23:39:11,15.08849533,0.0001089,53.2176,45.6186,77.9449,282.1665,5.1817e-05,5.37e-06,0.0,0 STARLINK-4217,1 52999U 22076P   23132.98554633  .00000537  00000-0  51817-4 0  9996,2 52999  53.2176  45.6186 0001089  77.9449 282.1665 15.08849533 47566,6917.851,95.437,540.47,538.963,0.0
52999.0,STARLINK-4217,PAYLOAD,2023-05-13 01:14:34,15.08849163,0.0001204,53.2184,45.3255,93.2897,266.8233,7.1183e-05,8.45e-06,0.0,0 STARLINK-4217,1 52999U 22076P   23133.05178450  .00000845  00000-0  71183-4 0  9994,2 52999  53.2184  45.3255 0001204  93.2897 266.8233 15.08849163 47105,6917.852,95.437,540.55,538.884,0.0
52999.0,STARLINK-4217,PAYLOAD,2023-05-14 01:05:22,15.08833671,0.000129,53.2191,40.8623,84.9945,275.1194,3.2181e-05,2.24e-06,0.0,0 STARLINK-4217,1 52999U 22076P   23134.04540166  .00000224  00000-0  32181-4 0  9997,2 52999  53.2191  40.8623 0001290  84.9945 275.1194 15.08833671 47722,6917.9,95.438,540.657,538.872,0.0
52999.0,STARLINK-4217,PAYLOAD,2023-05-15 00:56:08,15.08853335,0.0001362,53.2193,36.4021,89.1386,270.9762,-1.0454e-05,-4.54e-06,0.0,0 STARLINK-4217,1 52999U 22076P   23135.03899122 -.00000454  00000-0 -10454-4 0  9992,2 52999  53.2193  36.4021 0001362  89.1386 270.9762 15.08853335 47872,6917.84,95.437,540.647,538.762,0.0
52999.0,STARLINK-4217,PAYLOAD,2023-05-15 10:28:27,15.08847409,0.0001434,53.2188,34.6147,85.1762,274.9394,-8.2225e-05,-1.597e-05,0.0,0 STARLINK-4217,1 52999U 22076P   23135.43643221 -.00001597  00000-0 -82225-4 0  9997,2 52999  53.2188  34.6147 0001434  85.1762 274.9394 15.08847409 47464,6917.858,95.437,540.715,538.731,0.0
52999.0,STARLINK-4217,PAYLOAD,2023-05-16 00:46:56,15.08837498,0.0001495,53.2199,31.9362,80.6788,279.4373,7.955e-05,9.78e-06,0.0,0 STARLINK-4217,1 52999U 22076P   23136.03259776  .00000978  00000-0  79550-4 0  9999,2 52999  53.2199  31.9362 0001495  80.6788 279.4373 15.08837498 48027,6917.888,95.438,540.787,538.719,0.0
52999.0,STARLINK-4217,PAYLOAD,2023-05-16 19:51:33,15.0884565,0.0001407,53.2185,28.3716,94.9046,265.2107,-2.1694e-05,-6.33e-06,0.0,0 STARLINK-4217,1 52999U 22076P   23136.82747660 -.00000633  00000-0 -21694-4 0  9996,2 52999  53.2185  28.3716 0001407  94.9046 265.2107 15.08845650 47670,6917.863,95.437,540.701,538.755,0.0
52999.0,STARLINK-4217,PAYLOAD,2023-05-17 02:13:05,15.08850921,0.0001347,53.2183,27.1816,94.6252,265.4894,2.6892e-05,1.4e-06,0.0,0 STARLINK-4217,1 52999U 22076P   23137.09243033  .00000140  00000-0  26892-4 0  9997,2 52999  53.2183  27.1816 0001347  94.6252 265.4894 15.08850921 48184,6917.847,95.437,540.644,538.78,0.0
